{
  "type": "FeatureCollection",
  "features": [
    {
      "type": "Feature",
      "properties": {
        "norad_id": 33412,
        "name": "COSMO-SKYMED 3",
        "group": "resource",
        "lat": -14.650180033296378,
        "lon": -163.37869975625247,
        "alt_km": 565.762172357855,
        "timestamp": "2025-12-10T04:57:29.262268+00:00",
        "meta_object_name": "COSMO-SKYMED 3",
        "meta_object_id": "2008-054A",
        "meta_epoch": "2025-12-09T21:02:49.718112",
        "meta_mean_motion": 15.05312116,
        "meta_eccentricity": 0.0015843,
        "meta_inclination": 97.8458,
        "meta_ra_of_asc_node": 194.2205,
        "meta_arg_of_pericenter": 183.6394,
        "meta_mean_anomaly": 176.4719,
        "meta_ephemeris_type": 0,
        "meta_classification_type": "U",
        "meta_norad_cat_id": 33412,
        "meta_element_set_no": 999,
        "meta_rev_at_epoch": 92844,
        "meta_bstar": 0.00066647,
        "meta_mean_motion_dot": 9.504e-05,
        "meta_mean_motion_ddot": 0,
        "tle_line1": "1 33412U 08054A   25343.87696433  .00009504  00000+0  66647-3 0  9992",
        "tle_line2": "2 33412  97.8458 194.2205 0015843 183.6394 176.4719 15.05312116928441"
      },
      "geometry": {
        "type": "Point",
        "coordinates": [
          -163.37869975625247,
          -14.650180033296378
        ]
      }
    },
    {
      "type": "Feature",
      "properties": {
        "norad_id": 33446,
        "name": "YAOGAN-4",
        "group": "resource",
        "lat": 6.960833453620854,
        "lon": 95.304268732715,
        "alt_km": 632.0237510475808,
        "timestamp": "2025-12-10T04:57:29.262279+00:00",
        "meta_object_name": "YAOGAN-4",
        "meta_object_id": "2008-061A",
        "meta_epoch": "2025-12-09T18:27:44.192736",
        "meta_mean_motion": 14.82669066,
        "meta_eccentricity": 0.0013834,
        "meta_inclination": 97.918,
        "meta_ra_of_asc_node": 273.8977,
        "meta_arg_of_pericenter": 333.4194,
        "meta_mean_anomaly": 26.6309,
        "meta_ephemeris_type": 0,
        "meta_classification_type": "U",
        "meta_norad_cat_id": 33446,
        "meta_element_set_no": 999,
        "meta_rev_at_epoch": 91759,
        "meta_bstar": 0.000361,
        "meta_mean_motion_dot": 2.862e-05,
        "meta_mean_motion_ddot": 0,
        "tle_line1": "1 33446U 08061A   25343.76926149  .00002862  00000+0  36100-3 0  9996",
        "tle_line2": "2 33446  97.9180 273.8977 0013834 333.4194  26.6309 14.82669066917590"
      },
      "geometry": {
        "type": "Point",
        "coordinates": [
          95.304268732715,
          6.960833453620854
        ]
      }
    },
    {
      "type": "Feature",
      "properties": {
        "norad_id": 33492,
        "name": "GOSAT (IBUKI)",
        "group": "resource",
        "lat": 2.5030912958966662,
        "lon": 92.48932776799846,
        "alt_km": 671.5031186751858,
        "timestamp": "2025-12-10T04:57:29.262290+00:00",
        "meta_object_name": "GOSAT (IBUKI)",
        "meta_object_id": "2009-002A",
        "meta_epoch": "2025-12-09T17:29:31.577280",
        "meta_mean_motion": 14.67546684,
        "meta_eccentricity": 9.48e-05,
        "meta_inclination": 98.0769,
        "meta_ra_of_asc_node": 92.374,
        "meta_arg_of_pericenter": 88.233,
        "meta_mean_anomaly": 271.8984,
        "meta_ephemeris_type": 0,
        "meta_classification_type": "U",
        "meta_norad_cat_id": 33492,
        "meta_element_set_no": 999,
        "meta_rev_at_epoch": 90367,
        "meta_bstar": 0.00030026,
        "meta_mean_motion_dot": 1.655e-05,
        "meta_mean_motion_ddot": 0,
        "tle_line1": "1 33492U 09002A   25343.72883770  .00001655  00000+0  30026-3 0  9991",
        "tle_line2": "2 33492  98.0769  92.3740 0000948  88.2330 271.8984 14.67546684903677"
      },
      "geometry": {
        "type": "Point",
        "coordinates": [
          92.48932776799846,
          2.5030912958966662
        ]
      }
    },
    {
      "type": "Feature",
      "properties": {
        "norad_id": 35681,
        "name": "DEIMOS-1",
        "group": "resource",
        "lat": 12.868377383050236,
        "lon": 143.15270275301913,
        "alt_km": 645.8595108823192,
        "timestamp": "2025-12-10T04:57:29.262301+00:00",
        "meta_object_name": "DEIMOS-1",
        "meta_object_id": "2009-041A",
        "meta_epoch": "2025-12-09T20:45:30.841056",
        "meta_mean_motion": 14.74944806,
        "meta_eccentricity": 0.0002725,
        "meta_inclination": 97.7146,
        "meta_ra_of_asc_node": 144.6017,
        "meta_arg_of_pericenter": 83.9386,
        "meta_mean_anomaly": 276.2134,
        "meta_ephemeris_type": 0,
        "meta_classification_type": "U",
        "meta_norad_cat_id": 35681,
        "meta_element_set_no": 999,
        "meta_rev_at_epoch": 87897,
        "meta_bstar": 0.0001367,
        "meta_mean_motion_dot": 8.71e-06,
        "meta_mean_motion_ddot": 0,
        "tle_line1": "1 35681U 09041A   25343.86494029  .00000871  00000+0  13670-3 0  9991",
        "tle_line2": "2 35681  97.7146 144.6017 0002725  83.9386 276.2134 14.74944806878976"
      },
      "geometry": {
        "type": "Point",
        "coordinates": [
          143.15270275301913,
          12.868377383050236
        ]
      }
    },
    {
      "type": "Feature",
      "properties": {
        "norad_id": 35682,
        "name": "DUBAISAT-1",
        "group": "resource",
        "lat": -48.33180095562835,
        "lon": 123.99121317734135,
        "alt_km": 646.6045871511933,
        "timestamp": "2025-12-10T04:57:29.262312+00:00",
        "meta_object_name": "DUBAISAT-1",
        "meta_object_id": "2009-041B",
        "meta_epoch": "2025-12-09T19:24:29.093184",
        "meta_mean_motion": 14.74591888,
        "meta_eccentricity": 0.0009749,
        "meta_inclination": 97.9789,
        "meta_ra_of_asc_node": 114.5317,
        "meta_arg_of_pericenter": 324.7314,
        "meta_mean_anomaly": 35.3249,
        "meta_ephemeris_type": 0,
        "meta_classification_type": "U",
        "meta_norad_cat_id": 35682,
        "meta_element_set_no": 999,
        "meta_rev_at_epoch": 87718,
        "meta_bstar": 0.00038428,
        "meta_mean_motion_dot": 2.512e-05,
        "meta_mean_motion_ddot": 0,
        "tle_line1": "1 35682U 09041B   25343.80867006  .00002512  00000+0  38428-3 0  9997",
        "tle_line2": "2 35682  97.9789 114.5317 0009749 324.7314  35.3249 14.74591888877182"
      },
      "geometry": {
        "type": "Point",
        "coordinates": [
          123.99121317734135,
          -48.33180095562835
        ]
      }
    },
    {
      "type": "Feature",
      "properties": {
        "norad_id": 35931,
        "name": "OCEANSAT-2",
        "group": "resource",
        "lat": 81.62811140380302,
        "lon": -115.6644760117183,
        "alt_km": 878.5234363158415,
        "timestamp": "2025-12-10T04:57:29.262323+00:00",
        "meta_object_name": "OCEANSAT-2",
        "meta_object_id": "2009-051A",
        "meta_epoch": "2025-12-09T19:56:42.425376",
        "meta_mean_motion": 13.9962533,
        "meta_eccentricity": 0.0016328,
        "meta_inclination": 98.2225,
        "meta_ra_of_asc_node": 344.7267,
        "meta_arg_of_pericenter": 52.637,
        "meta_mean_anomaly": 307.6281,
        "meta_ephemeris_type": 0,
        "meta_classification_type": "U",
        "meta_norad_cat_id": 35931,
        "meta_element_set_no": 999,
        "meta_rev_at_epoch": 85284,
        "meta_bstar": -7.063e-05,
        "meta_mean_motion_dot": -1.41e-06,
        "meta_mean_motion_ddot": 0,
        "tle_line1": "1 35931U 09051A   25343.83104659 -.00000141  00000+0 -70630-4 0  9996",
        "tle_line2": "2 35931  98.2225 344.7267 0016328  52.6370 307.6281 13.99625330852842"
      },
      "geometry": {
        "type": "Point",
        "coordinates": [
          -115.6644760117183,
          81.62811140380302
        ]
      }
    },
    {
      "type": "Feature",
      "properties": {
        "norad_id": 35946,
        "name": "WORLDVIEW-2 (WV-2)",
        "group": "resource",
        "lat": -45.565663097155515,
        "lon": -133.42264305958008,
        "alt_km": 776.4108831391004,
        "timestamp": "2025-12-10T04:57:29.262333+00:00",
        "meta_object_name": "WORLDVIEW-2 (WV-2)",
        "meta_object_id": "2009-055A",
        "meta_epoch": "2025-12-09T19:33:29.210688",
        "meta_mean_motion": 14.37650968,
        "meta_eccentricity": 0.0005359,
        "meta_inclination": 98.4763,
        "meta_ra_of_asc_node": 54.9398,
        "meta_arg_of_pericenter": 73.9963,
        "meta_mean_anomaly": 286.1814,
        "meta_ephemeris_type": 0,
        "meta_classification_type": "U",
        "meta_norad_cat_id": 35946,
        "meta_element_set_no": 999,
        "meta_rev_at_epoch": 84843,
        "meta_bstar": 0.00012907,
        "meta_mean_motion_dot": 3.44e-06,
        "meta_mean_motion_ddot": 0,
        "tle_line1": "1 35946U 09055A   25343.81492142  .00000344  00000+0  12907-3 0  9996",
        "tle_line2": "2 35946  98.4763  54.9398 0005359  73.9963 286.1814 14.37650968848439"
      },
      "geometry": {
        "type": "Point",
        "coordinates": [
          -133.42264305958008,
          -45.565663097155515
        ]
      }
    }
  ]
}